{"type": "FeatureCollection", "features": [ {"type": "Feature", "properties": {"norad_id": 28649, "name": "IRS-P5 (CARTOSAT-1)", "group": "resource", "lat": 58.42071624194602, "lon": -4.996995260475656, "alt_km": 590.0148090941148, "timestamp": "2025-12-06T18:50:09.827297+00:00", "meta": {"OBJECT_NAME": "IRS-P5 (CARTOSAT-1)", "OBJECT_ID": "2005-017A", "EPOCH": "2025-12-06T00:50:47.654592", "MEAN_MOTION": 14.90370093, "ECCENTRICITY": 0.00016534, "INCLINATION": 97.5495, "RA_OF_ASC_NODE": 6.7461, "ARG_OF_PERICENTER": 51.3349, "MEAN_ANOMALY": 308.8017, "EPHEMERIS_TYPE": 0, "CLASSIFICATION_TYPE": "U", "NORAD_CAT_ID": 28649, "ELEMENT_SET_NO": 999, "REV_AT_EPOCH": 11504, "BSTAR": 0.00035999589, "MEAN_MOTION_DOT": 3.451e-05, "MEAN_MOTION_DDOT": 0}, "tle": {"line1": "1 28649U 05017A   25340.03527378  .00003451  00000+0  36000-3 0  9995", "line2": "2 28649  97.5495   6.7461 0001653  51.3349 308.8017 14.90370093115048"}}, "geometry": {"type": "Point", "coordinates": [-4.996995260475656, 58.42071624194602]}}, {"type": "Feature", "properties": {"norad_id": 28893, "name": "SINAH 1", "group": "resource", "lat": -75.76051359615708, "lon": -105.59439380227195, "alt_km": 690.2311017310194, "timestamp": "2025-12-06T18:50:09.827307+00:00", "meta": {"OBJECT_NAME": "SINAH 1", "OBJECT_ID": "2005-043D", "EPOCH": "2025-12-06T07:49:05.922336", "MEAN_MOTION": 14.63951553, "ECCENTRICITY": 0.00149841, "INCLINATION": 98.2601, "RA_OF_ASC_NODE": 108.866, "ARG_OF_PERICENTER": 156.1689, "MEAN_ANOMALY": 204.021, "EPHEMERIS_TYPE": 0, "CLASSIFICATION_TYPE": "U", "NORAD_CAT_ID": 28893, "ELEMENT_SET_NO": 999, "REV_AT_EPOCH": 7230, "BSTAR": 0.00020288129, "MEAN_MOTION_DOT": 1.015e-05, "MEAN_MOTION_DDOT": 0}, "tle": {"line1": "1 28893U 05043D   25340.32576299  .00001015  00000+0  20288-3 0  9998", "line2": "2 28893  98.2601 108.8660 0014984 156.1689 204.0210 14.63951553 72302"}}, "geometry": {"type": "Point", "coordinates": [-105.59439380227195, -75.76051359615708]}}, {"type": "Feature", "properties": {"norad_id": 29079, "name": "EROS B", "group": "resource", "lat": -40.12904055339527, "lon": -89.16006169655404, "alt_km": 375.97007857287554, "timestamp": "2025-12-06T18:50:09.827318+00:00", "meta": {"OBJECT_NAME": "EROS B", "OBJECT_ID": "2006-014A", "EPOCH": "2025-12-06T07:09:41.740992", "MEAN_MOTION": 15.65804768, "ECCENTRICITY": 0.00017322, "INCLINATION": 97.3488, "RA_OF_ASC_NODE": 96.5778, "ARG_OF_PERICENTER": 253.3413, "MEAN_ANOMALY": 106.7657, "EPHEMERIS_TYPE": 0, "CLASSIFICATION_TYPE": "U", "NORAD_CAT_ID": 29079, "ELEMENT_SET_NO": 999, "REV_AT_EPOCH": 8979, "BSTAR": 0.001931598, "MEAN_MOTION_DOT": 0.00199852, "MEAN_MOTION_DDOT": 0}, "tle": {"line1": "1 29079U 06014A   25340.29839978  .00199852  00000+0  19316-2 0  9992", "line2": "2 29079  97.3488  96.5778 0001732 253.3413 106.7657 15.65804768 89799"}}, "geometry": {"type": "Point", "coordinates": [-89.16006169655404, -40.12904055339527]}}, {"type": "Feature", "properties": {"norad_id": 29228, "name": "RESURS-DK 1", "group": "resource", "lat": -36.604852376882235, "lon": -47.018410763049424, "alt_km": 531.59531532031, "timestamp": "2025-12-06T18:50:09.827329+00:00", "meta": {"OBJECT_NAME": "RESURS-DK 1", "OBJECT_ID": "2006-021A", "EPOCH": "2025-12-05T19:38:30.099552", "MEAN_MOTION": 15.12100582, "ECCENTRICITY": 0.00077897, "INCLINATION": 69.9338, "RA_OF_ASC_NODE": 119.7231, "ARG_OF_PERICENTER": 263.9017, "MEAN_ANOMALY": 96.1261, "EPHEMERIS_TYPE": 0, "CLASSIFICATION_TYPE": "U", "NORAD_CAT_ID": 29228, "ELEMENT_SET_NO": 999, "REV_AT_EPOCH": 7333, "BSTAR": 0.00031090969, "MEAN_MOTION_DOT": 5.264e-05, "MEAN_MOTION_DDOT": 0}, "tle": {"line1": "1 29228U 06021A   25339.81840393  .00005264  00000+0  31091-3 0  9993", "line2": "2 29228  69.9338 119.7231 0007789 263.9017  96.1261 15.12100582 73332"}}, "geometry": {"type": "Point", "coordinates": [-47.018410763049424, -36.604852376882235]}}, {"type": "Feature", "properties": {"norad_id": 29268, "name": "ARIRANG-2 (KOMPSAT-2)", "group": "resource", "lat": 27.164348051586234, "lon": -6.404328886825224, "alt_km": 687.400628114462, "timestamp": "2025-12-06T18:50:09.827340+00:00", "meta": {"OBJECT_NAME": "ARIRANG-2 (KOMPSAT-2)", "OBJECT_ID": "2006-031A", "EPOCH": "2025-12-06T07:27:02.001312", "MEAN_MOTION": 14.6448516, "ECCENTRICITY": 0.00138205, "INCLINATION": 97.8271, "RA_OF_ASC_NODE": 169.0969, "ARG_OF_PERICENTER": 330.4884, "MEAN_ANOMALY": 202.3961, "EPHEMERIS_TYPE": 0, "CLASSIFICATION_TYPE": "U", "NORAD_CAT_ID": 29268, "ELEMENT_SET_NO": 999, "REV_AT_EPOCH": 3324, "BSTAR": 0.00015745066, "MEAN_MOTION_DOT": 7.9e-06, "MEAN_MOTION_DDOT": 0}, "tle": {"line1": "1 29268U 06031A   25340.31043983  .00000790  00000+0  15745-3 0  9992", "line2": "2 29268  97.8271 169.0969 0013820 330.4884 202.3961 14.64485160 33241"}}, "geometry": {"type": "Point", "coordinates": [-6.404328886825224, 27.164348051586234]}}, {"type": "Feature", "properties": {"norad_id": 29709, "name": "LAPAN-TUBSAT", "group": "resource", "lat": -6.592639267950248, "lon": -28.234842780345065, "alt_km": 616.7191782255704, "timestamp": "2025-12-06T18:50:09.827351+00:00", "meta": {"OBJECT_NAME": "LAPAN-TUBSAT", "OBJECT_ID": "2007-001A", "EPOCH": "2025-12-06T05:56:04.288704", "MEAN_MOTION": 14.85655968, "ECCENTRICITY": 0.00136364, "INCLINATION": 98.1251, "RA_OF_ASC_NODE": 330.2705, "ARG_OF_PERICENTER": 93.467, "MEAN_ANOMALY": 266.8105, "EPHEMERIS_TYPE": 0, "CLASSIFICATION_TYPE": "U", "NORAD_CAT_ID": 29709, "ELEMENT_SET_NO": 999, "REV_AT_EPOCH": 2250, "BSTAR": 0.00016072693, "MEAN_MOTION_DOT": 1.337e-05, "MEAN_MOTION_DDOT": 0}, "tle": {"line1": "1 29709U 07001A   25340.24727186  .00001337  00000+0  16073-3 0  9999", "line2": "2 29709  98.1251 330.2705 0013636  93.4670 266.8105 14.85655968 22507"}}, "geometry": {"type": "Point", "coordinates": [-28.234842780345065, -6.592639267950248]}}, {"type": "Feature", "properties": {"norad_id": 31113, "name": "HAIYANG-1B", "group": "resource", "lat": -30.163288403790098, "lon": -29.805847007187257, "alt_km": 793.4871330846981, "timestamp": "2025-12-06T18:50:09.827362+00:00", "meta": {"OBJECT_NAME": "HAIYANG-1B", "OBJECT_ID": "2007-010A", "EPOCH": "2025-12-06T05:33:10.720512", "MEAN_MOTION": 14.30961622, "ECCENTRICITY": 0.00145223, "INCLINATION": 98.3309, "RA_OF_ASC_NODE": 324.7786, "ARG_OF_PERICENTER": 56.035, "MEAN_ANOMALY": 304.2212, "EPHEMERIS_TYPE": 0, "CLASSIFICATION_TYPE": "U", "NORAD_CAT_ID": 31113, "ELEMENT_SET_NO": 999, "REV_AT_EPOCH": 97303, "BSTAR": 0.00010628393, "MEAN_MOTION_DOT": 2.38e-06, "MEAN_MOTION_DDOT": 0}, "tle": {"line1": "1 31113U 07010A   25340.23137408  .00000238  00000+0  10628-3 0  9991", "line2": "2 31113  98.3309 324.7786 0014522  56.0350 304.2212 14.30961622973033"}}, "geometry": {"type": "Point", "coordinates": [-29.805847007187257, -30.163288403790098]}}, {"type": "Feature", "properties": {"norad_id": 31598, "name": "COSMO-SKYMED 1", "group": "resource", "lat": 81.00654947376253, "lon": 47.250498843234354, "alt_km": 571.9860812513143, "timestamp": "2025-12-06T18:50:09.827373+00:00", "meta": {"OBJECT_NAME": "COSMO-SKYMED 1", "OBJECT_ID": "2007-023A", "EPOCH": "2025-12-06T05:34:16.457952", "MEAN_MOTION": 14.95693053, "ECCENTRICITY": 0.00011841, "INCLINATION": 97.8836, "RA_OF_ASC_NODE": 165.5893, "ARG_OF_PERICENTER": 78.4575, "MEAN_ANOMALY": 281.6778, "EPHEMERIS_TYPE": 0, "CLASSIFICATION_TYPE": "U", "NORAD_CAT_ID": 31598, "ELEMENT_SET_NO": 999, "REV_AT_EPOCH": 93, "BSTAR": 0.000579071, "MEAN_MOTION_DOT": 6.388e-05, "MEAN_MOTION_DDOT": 0}, "tle": {"line1": "1 31598U 07023A   25340.23213493  .00006388  00000+0  57907-3 0  9994", "line2": "2 31598  97.8836 165.5893 0001184  78.4575 281.6778 14.95693053   932"}}, "geometry": {"type": "Point", "coordinates": [47.250498843234354, 81.00654947376253]}}, {"type": "Feature", "properties": {"norad_id": 31698, "name": "TERRASAR-X", "group": "resource", "lat": -30.76945038372561, "lon": -9.2823258110364, "alt_km": 514.8599311533444, "timestamp": "2025-12-06T18:50:09.827383+00:00", "meta": {"OBJECT_NAME": "TERRASAR-X", "OBJECT_ID": "2007-026A", "EPOCH": "2025-12-05T14:31:03.290880", "MEAN_MOTION": 15.19155481, "ECCENTRICITY": 0.00018634, "INCLINATION": 97.4446, "RA_OF_ASC_NODE": 345.0897, "ARG_OF_PERICENTER": 81.8163, "MEAN_ANOMALY": 278.3283, "EPHEMERIS_TYPE": 0, "CLASSIFICATION_TYPE": "U", "NORAD_CAT_ID": 31698, "ELEMENT_SET_NO": 999, "REV_AT_EPOCH": 2383, "BSTAR": 0.00015422933, "MEAN_MOTION_DOT": 3.174e-05, "MEAN_MOTION_DDOT": 0}, "tle": {"line1": "1 31698U 07026A   25339.60489920  .00003174  00000+0  15423-3 0  9994", "line2": "2 31698  97.4446 345.0897 0001863  81.8163 278.3283 15.19155481 23833"}}, "geometry": {"type": "Point", "coordinates": [-9.2823258110364, -30.76945038372561]}}, {"type": "Feature", "properties": {"norad_id": 32060, "name": "WORLDVIEW-1 (WV-1)", "group": "resource", "lat": -33.26277473277848, "lon": -86.52949513111236, "alt_km": 498.5948501953462, "timestamp": "2025-12-06T18:50:09.827394+00:00", "meta": {"OBJECT_NAME": "WORLDVIEW-1 (WV-1)", "OBJECT_ID": "2007-041A", "EPOCH": "2025-12-06T05:18:01.806336", "MEAN_MOTION": 15.24526968, "ECCENTRICITY": 7.11e-05, "INCLINATION": 97.3845, "RA_OF_ASC_NODE": 97.7948, "ARG_OF_PERICENTER": 101.3925, "MEAN_ANOMALY": 258.7393, "EPHEMERIS_TYPE": 0, "CLASSIFICATION_TYPE": "U", "NORAD_CAT_ID": 32060, "ELEMENT_SET_NO": 999, "REV_AT_EPOCH": 1348, "BSTAR": 0.00059965608, "MEAN_MOTION_DOT": 0.00014699, "MEAN_MOTION_DDOT": 0}, "tle": {"line1": "1 32060U 07041A   25340.22085424  .00014699  00000+0  59966-3 0  9990", "line2": "2 32060  97.3845  97.7948 0000711 101.3925 258.7393 15.24526968 13484"}}, "geometry": {"type": "Point", "coordinates": [-86.52949513111236, -33.26277473277848]}}]}